FACSAT-2                
1 56205U 23054AD  23361.42346801  .00019688  00000+0  69265-3 0  9997
2 56205  97.3872 254.5590 0015128  51.3705 308.8887 15.29267922 39665
