{"type": "Feature", "geometry": {"type": "Point", "coordinates": ["-98.21", "10.5"]}, "properties": {"temperature": "26", "pressure": "1,015", "localTime": "Wed Dec 27 2023 11:46:12 GMT-0500 (hora est\u00e1ndar de Colombia)", "julianTime": "1703695572", "utcTime": "11:46:24 AM", "altitude": "481.41", "elevation": "-34.8", "TLE": {"Norad_Id": 56205, "International_Classification": "Unclassified", "International_Designation": "23054AD", "Epoch_Time_(ISO)": "2023-12-27T10:09:48Z", "First_Derivative_Mean_Motion": 0.00019688, "Second_Derivative_Mean_Motion": 0.0, "Inclination": 97.3872, "Right_Ascension_of_the_Ascending_Node": 254.559, "Eccentricity": 0.0015128, "Argument_of_Perigee": 51.3705, "Mean_Anomaly": 308.8887, "Mean_Motion": 15.29267922, "Revolution_Number_at_Epoch": 3966}}}